CCSDS_OMM_VERS = 2.0
CREATION_DATE  = 
ORIGINATOR     = 

OBJECT_NAME    = KUIPER-00214
OBJECT_ID      = 2026-030Q
CENTER_NAME    = EARTH
REF_FRAME      = TEME
TIME_SYSTEM    = UTC
MEAN_ELEMENT_THEORY = SGP/SGP4

EPOCH          = 2026-03-04T23:56:25.202688
MEAN_MOTION    = 15.36551093
ECCENTRICITY   = .0000321
INCLINATION    = 51.8838
RA_OF_ASC_NODE = 241.6296
ARG_OF_PERICENTER = 154.9541
MEAN_ANOMALY   = 205.1461

EPHEMERIS_TYPE = 0
CLASSIFICATION_TYPE = U
NORAD_CAT_ID   = 67778
ELEMENT_SET_NO = 999
REV_AT_EPOCH   = 437
BSTAR          = .21009E-3
MEAN_MOTION_DOT = .7232E-4
MEAN_MOTION_DDOT = 0

CCSDS_OMM_VERS = 2.0
CREATION_DATE  = 
ORIGINATOR     = 

OBJECT_NAME    = KUIPER-00215
OBJECT_ID      = 2026-030R
CENTER_NAME    = EARTH
REF_FRAME      = TEME
TIME_SYSTEM    = UTC
MEAN_ELEMENT_THEORY = SGP/SGP4

EPOCH          = 2026-03-04T23:05:57.326784
MEAN_MOTION    = 15.34245911
ECCENTRICITY   = .0009991
INCLINATION    = 51.8839
RA_OF_ASC_NODE = 242.1372
ARG_OF_PERICENTER = 47.0518
MEAN_ANOMALY   = 313.1303

EPHEMERIS_TYPE = 0
CLASSIFICATION_TYPE = U
NORAD_CAT_ID   = 67779
ELEMENT_SET_NO = 999
REV_AT_EPOCH   = 436
BSTAR          = .10139E-2
MEAN_MOTION_DOT = .33944E-3
MEAN_MOTION_DDOT = 0

CCSDS_OMM_VERS = 2.0
CREATION_DATE  = 
ORIGINATOR     = 

OBJECT_NAME    = KUIPER-00218
OBJECT_ID      = 2026-030S
CENTER_NAME    = EARTH
REF_FRAME      = TEME
TIME_SYSTEM    = UTC
MEAN_ELEMENT_THEORY = SGP/SGP4

EPOCH          = 2026-03-04T22:52:28.651296
MEAN_MOTION    = 15.34968269
ECCENTRICITY   = .0006601
INCLINATION    = 51.8836
RA_OF_ASC_NODE = 242.0756
ARG_OF_PERICENTER = 36.8818
MEAN_ANOMALY   = 323.2620

EPHEMERIS_TYPE = 0
CLASSIFICATION_TYPE = U
NORAD_CAT_ID   = 67780
ELEMENT_SET_NO = 999
REV_AT_EPOCH   = 436
BSTAR          = .10344E-2
MEAN_MOTION_DOT = .35428E-3
MEAN_MOTION_DDOT = 0

CCSDS_OMM_VERS = 2.0
CREATION_DATE  = 
ORIGINATOR     = 

OBJECT_NAME    = KUIPER-00220
OBJECT_ID      = 2026-030T
CENTER_NAME    = EARTH
REF_FRAME      = TEME
TIME_SYSTEM    = UTC
MEAN_ELEMENT_THEORY = SGP/SGP4

EPOCH          = 2026-03-04T23:01:05.464992
MEAN_MOTION    = 15.34540092
ECCENTRICITY   = .0008196
INCLINATION    = 51.8810
RA_OF_ASC_NODE = 242.1075
ARG_OF_PERICENTER = 43.2976
MEAN_ANOMALY   = 316.8653

EPHEMERIS_TYPE = 0
CLASSIFICATION_TYPE = U
NORAD_CAT_ID   = 67781
ELEMENT_SET_NO = 999
REV_AT_EPOCH   = 436
BSTAR          = .82308E-3
MEAN_MOTION_DOT = .27709E-3
MEAN_MOTION_DDOT = 0

CCSDS_OMM_VERS = 2.0
CREATION_DATE  = 
ORIGINATOR     = 

OBJECT_NAME    = KUIPER-00222
OBJECT_ID      = 2026-030U
CENTER_NAME    = EARTH
REF_FRAME      = TEME
TIME_SYSTEM    = UTC
MEAN_ELEMENT_THEORY = SGP/SGP4

EPOCH          = 2026-03-04T23:32:19.148352
MEAN_MOTION    = 15.32422890
ECCENTRICITY   = .00177
INCLINATION    = 51.8797
RA_OF_ASC_NODE = 242.2438
ARG_OF_PERICENTER = 46.4411
MEAN_ANOMALY   = 313.8040

EPHEMERIS_TYPE = 0
CLASSIFICATION_TYPE = U
NORAD_CAT_ID   = 67782
ELEMENT_SET_NO = 999
REV_AT_EPOCH   = 436
BSTAR          = .24763E-2
MEAN_MOTION_DOT = .79505E-3
MEAN_MOTION_DDOT = 0

CCSDS_OMM_VERS = 2.0
CREATION_DATE  = 
ORIGINATOR     = 

OBJECT_NAME    = KUIPER-00223
OBJECT_ID      = 2026-030V
CENTER_NAME    = EARTH
REF_FRAME      = TEME
TIME_SYSTEM    = UTC
MEAN_ELEMENT_THEORY = SGP/SGP4

EPOCH          = 2026-03-04T23:10:37.827840
MEAN_MOTION    = 15.34035132
ECCENTRICITY   = .0012253
INCLINATION    = 51.8822
RA_OF_ASC_NODE = 242.1544
ARG_OF_PERICENTER = 47.0413
MEAN_ANOMALY   = 313.1598

EPHEMERIS_TYPE = 0
CLASSIFICATION_TYPE = U
NORAD_CAT_ID   = 67783
ELEMENT_SET_NO = 999
REV_AT_EPOCH   = 436
BSTAR          = .83998E-3
MEAN_MOTION_DOT = .27866E-3
MEAN_MOTION_DDOT = 0

CCSDS_OMM_VERS = 2.0
CREATION_DATE  = 
ORIGINATOR     = 

OBJECT_NAME    = KUIPER-00225
OBJECT_ID      = 2026-030W
CENTER_NAME    = EARTH
REF_FRAME      = TEME
TIME_SYSTEM    = UTC
MEAN_ELEMENT_THEORY = SGP/SGP4

EPOCH          = 2026-03-05T00:13:36.441984
MEAN_MOTION    = 15.35688077
ECCENTRICITY   = .0004128
INCLINATION    = 51.8810
RA_OF_ASC_NODE = 241.6996
ARG_OF_PERICENTER = 26.5884
MEAN_ANOMALY   = 333.5314

EPHEMERIS_TYPE = 0
CLASSIFICATION_TYPE = U
NORAD_CAT_ID   = 67784
ELEMENT_SET_NO = 999
REV_AT_EPOCH   = 437
BSTAR          = .80935E-3
MEAN_MOTION_DOT = .28249E-3
MEAN_MOTION_DDOT = 0

CCSDS_OMM_VERS = 2.0
CREATION_DATE  = 
ORIGINATOR     = 

OBJECT_NAME    = KUIPER-00226
OBJECT_ID      = 2026-030X
CENTER_NAME    = EARTH
REF_FRAME      = TEME
TIME_SYSTEM    = UTC
MEAN_ELEMENT_THEORY = SGP/SGP4

EPOCH          = 2026-03-04T23:48:01.722240
MEAN_MOTION    = 15.31268779
ECCENTRICITY   = .0019968
INCLINATION    = 51.8805
RA_OF_ASC_NODE = 242.3152
ARG_OF_PERICENTER = 59.9274
MEAN_ANOMALY   = 300.3687

EPHEMERIS_TYPE = 0
CLASSIFICATION_TYPE = U
NORAD_CAT_ID   = 67785
ELEMENT_SET_NO = 999
REV_AT_EPOCH   = 436
BSTAR          = .12009E-2
MEAN_MOTION_DOT = .36832E-3
MEAN_MOTION_DDOT = 0

CCSDS_OMM_VERS = 2.0
CREATION_DATE  = 
ORIGINATOR     = 

OBJECT_NAME    = KUIPER-00259
OBJECT_ID      = 2026-030Y
CENTER_NAME    = EARTH
REF_FRAME      = TEME
TIME_SYSTEM    = UTC
MEAN_ELEMENT_THEORY = SGP/SGP4

EPOCH          = 2026-03-04T22:55:21.975744
MEAN_MOTION    = 15.34866797
ECCENTRICITY   = .0008258
INCLINATION    = 51.8811
RA_OF_ASC_NODE = 242.0820
ARG_OF_PERICENTER = 35.7954
MEAN_ANOMALY   = 324.3583

EPHEMERIS_TYPE = 0
CLASSIFICATION_TYPE = U
NORAD_CAT_ID   = 67786
ELEMENT_SET_NO = 999
REV_AT_EPOCH   = 436
BSTAR          = .10341E-2
MEAN_MOTION_DOT = .35313E-3
MEAN_MOTION_DDOT = 0

CCSDS_OMM_VERS = 2.0
CREATION_DATE  = 
ORIGINATOR     = 

OBJECT_NAME    = KUIPER-00260
OBJECT_ID      = 2026-030Z
CENTER_NAME    = EARTH
REF_FRAME      = TEME
TIME_SYSTEM    = UTC
MEAN_ELEMENT_THEORY = SGP/SGP4

EPOCH          = 2026-03-05T00:02:46.840992
MEAN_MOTION    = 15.36252409
ECCENTRICITY   = .000101
INCLINATION    = 51.8797
RA_OF_ASC_NODE = 241.6502
ARG_OF_PERICENTER = 51.9851
MEAN_ANOMALY   = 308.1227

EPHEMERIS_TYPE = 0
CLASSIFICATION_TYPE = U
NORAD_CAT_ID   = 67787
ELEMENT_SET_NO = 999
REV_AT_EPOCH   = 428
BSTAR          = .88945E-3
MEAN_MOTION_DOT = .31664E-3
MEAN_MOTION_DDOT = 0

CCSDS_OMM_VERS = 2.0
CREATION_DATE  = 
ORIGINATOR     = 

OBJECT_NAME    = KUIPER-00262
OBJECT_ID      = 2026-030AA
CENTER_NAME    = EARTH
REF_FRAME      = TEME
TIME_SYSTEM    = UTC
MEAN_ELEMENT_THEORY = SGP/SGP4

EPOCH          = 2026-03-04T23:57:49.921344
MEAN_MOTION    = 15.36571962
ECCENTRICITY   = .0000355
INCLINATION    = 51.8807
RA_OF_ASC_NODE = 241.6308
ARG_OF_PERICENTER = 117.8319
MEAN_ANOMALY   = 242.2704

EPHEMERIS_TYPE = 0
CLASSIFICATION_TYPE = U
NORAD_CAT_ID   = 67788
ELEMENT_SET_NO = 999
REV_AT_EPOCH   = 437
BSTAR          = .10341E-2
MEAN_MOTION_DOT = .37288E-3
MEAN_MOTION_DDOT = 0

CCSDS_OMM_VERS = 2.0
CREATION_DATE  = 
ORIGINATOR     = 

OBJECT_NAME    = KUIPER-00266
OBJECT_ID      = 2026-030AB
CENTER_NAME    = EARTH
REF_FRAME      = TEME
TIME_SYSTEM    = UTC
MEAN_ELEMENT_THEORY = SGP/SGP4

EPOCH          = 2026-03-04T23:54:31.772448
MEAN_MOTION    = 15.30959366
ECCENTRICITY   = .0022736
INCLINATION    = 51.8805
RA_OF_ASC_NODE = 242.3416
ARG_OF_PERICENTER = 59.5056
MEAN_ANOMALY   = 300.8170

EPHEMERIS_TYPE = 0
CLASSIFICATION_TYPE = U
NORAD_CAT_ID   = 67789
ELEMENT_SET_NO = 999
REV_AT_EPOCH   = 436
BSTAR          = .80059E-3
MEAN_MOTION_DOT = .24194E-3
MEAN_MOTION_DDOT = 0

